{
 "cells": [
  {
   "cell_type": "code",
   "execution_count": null,
   "id": "5c554276",
   "metadata": {},
   "outputs": [
    {
     "name": "stdout",
     "output_type": "stream",
     "text": [
      "True\n"
     ]
    }
   ],
   "source": [
    "# import jax                                                                     # Check current setting                     \n",
    "                                                                            \n",
    "# # Enable jax 64-bit precision               \n",
    "# jax.config.update(\"jax_enable_x64\", True) \n",
    "\n",
    "# print(jax.config.jax_enable_x64) "
   ]
  },
  {
   "cell_type": "code",
   "execution_count": 5,
   "id": "020eba2b",
   "metadata": {},
   "outputs": [
    {
     "name": "stdout",
     "output_type": "stream",
     "text": [
      "float32\n",
      "0.06761234911928327 15.495609\n",
      "0.0004132 0.0004132\n",
      "51.6334 51.6334\n",
      "61.4658 61.4658\n",
      "293.52809999999994 293.5281\n",
      "298.6746 298.6746\n",
      "0.00036009000000000003 0.00036009\n",
      "316.22557474 316.2256\n",
      "25 2025\n"
     ]
    }
   ],
   "source": [
    "# test tle2sat function \n",
    "\n",
    "# sgp4 python package imports\n",
    "from sgp4.api import Satrec\n",
    "\n",
    "# jax_sgp4 imports\n",
    "from jax_sgp4 import tle2sat\n",
    "\n",
    "import jax.numpy as jnp\n",
    "import numpy as np\n",
    "\n",
    "# TLE for the International Space Station (ZARYA)\n",
    "tle1 = '1 25544U 98067A   25316.22557474  .00019835  00000-0  36009-3 0  9990'\n",
    "tle2 = '2 25544  51.6334 293.5281 0004132  61.4658 298.6746 15.49560899538121' \n",
    "\n",
    "# Create Satrec object\n",
    "sat = Satrec.twoline2rv(tle1, tle2)\n",
    "\n",
    "sat_test = tle2sat(tle1, tle2)\n",
    "\n",
    "print(sat_test.n0.dtype)\n",
    "\n",
    "print(sat.no_kozai, sat_test.n0) # diff units\n",
    "print(sat.ecco, sat_test.e0)\n",
    "print(sat.inclo * 180.0 / jnp.pi, sat_test.i0)\n",
    "print(sat.argpo * 180.0 / jnp.pi, sat_test.w0)\n",
    "print(sat.nodeo * 180.0 / jnp.pi, sat_test.Omega0) # rounding error?\n",
    "print(sat.mo * 180.0 / jnp.pi, sat_test.M0)\n",
    "print(sat.bstar, sat_test.Bstar)\n",
    "print(sat.epochdays, sat_test.epochdays)\n",
    "print(sat.epochyr, sat_test.epochyr)  "
   ]
  },
  {
   "cell_type": "code",
   "execution_count": 6,
   "id": "7b7d1f3f",
   "metadata": {},
   "outputs": [
    {
     "name": "stdout",
     "output_type": "stream",
     "text": [
      "(705.08880216296, 5760.37365185177, 3527.6041455633244)\n",
      "(-5.192094694881382, 3.401162766577282, -4.496405865253736)\n",
      "SGP4 error code: 0\n",
      "['705.07165527344', '5760.38525390625', '3527.58886718750']\n",
      "['-5.192097663879395', '3.401138544082642', '-4.496421337127686']\n",
      "[-0.017150879  0.01171875  -0.015380859]\n",
      "[-2.8610229e-06 -2.4318695e-05 -1.5258789e-05]\n"
     ]
    }
   ],
   "source": [
    "# test sgp4 function (to compare jitted vs unjitted but jaxsgp4 has basically replaced this now, can ignore)\n",
    "\n",
    "from sgp4.api import jday, Satrec\n",
    "from jax_sgp4 import sgp4, tle2sat\n",
    "import jax\n",
    "import jax.numpy as jnp\n",
    "\n",
    "jnp.set_printoptions(precision=11)\n",
    "\n",
    "# TLE for the International Space Station (ZARYA)\n",
    "tle1 = '1 25544U 98067A   25316.22557474  .00019835  00000-0  36009-3 0  9990'\n",
    "tle2 = '2 25544  51.6334 293.5281 0004132  61.4658 298.6746 15.49560899538121' \n",
    "\n",
    "# Create Satrec object\n",
    "sat = Satrec.twoline2rv(tle1, tle2)\n",
    "\n",
    "# Choose a time since epoch to propagate to (minutes)\n",
    "tsince = 500.0\n",
    "\n",
    "# Propagate using standard SGP4 implementation\n",
    "e, r, v = sat.sgp4_tsince(tsince)\n",
    "\n",
    "print(r)  # position (km)\n",
    "print(v)  # velocity (km/s)\n",
    "print(\"SGP4 error code:\", e)\n",
    "\n",
    "# Propagate using JAX SGP4 implementation\n",
    "satjax = tle2sat(tle1, tle2)\n",
    "\n",
    "result = sgp4(satjax, tsince)\n",
    "rjax = result[:3]\n",
    "vjax = result[3:]\n",
    "\n",
    "# print to 11 decimal places\n",
    "print([f'{x:.11f}' for x in rjax])\n",
    "print([f'{x:.15f}' for x in vjax])  # position (km), velocity (km/s)\n",
    "\n",
    "# Compare results\n",
    "r = jnp.array(r)\n",
    "v = jnp.array(v)\n",
    "print(rjax - r)\n",
    "print(vjax - v)\n",
    "\n",
    "# # time sgp4 unjitted\n",
    "# %timeit sgp4(satjax, tsince).block_until_ready()\n",
    "\n",
    "# # time sgp4 jitted\n",
    "# jaxsgp4 = jax.jit(sgp4)\n",
    "# %timeit jaxsgp4(satjax, tsince).block_until_ready()\n",
    "\n",
    "# # time sgp4 python package C++ implementation\n",
    "# # (Verify it is using the fast C++ implementation rather than the slow python)\n",
    "# from sgp4.api import accelerated\n",
    "# print(accelerated)\n",
    "# %timeit sat.sgp4_tsince(tsince)"
   ]
  },
  {
   "cell_type": "code",
   "execution_count": null,
   "id": "08bf70e1",
   "metadata": {},
   "outputs": [],
   "source": []
  },
  {
   "cell_type": "code",
   "execution_count": 4,
   "id": "3669972b",
   "metadata": {},
   "outputs": [
    {
     "name": "stdout",
     "output_type": "stream",
     "text": [
      "(705.08880216296, 5760.37365185177, 3527.6041455633244)\n",
      "(-5.192094694881382, 3.401162766577282, -4.496405865253736)\n",
      "[ 705.08880216301 5760.37365185173 3527.60414556337]\n",
      "[-5.19209469488  3.40116276658 -4.49640586525]\n",
      "[ 5.04769559484e-11 -3.63797880709e-11  4.82032191940e-11]\n",
      "[6.21724893790e-15 7.46069872548e-14 4.79616346638e-14]\n"
     ]
    }
   ],
   "source": [
    "# test jaxsgp4\n",
    "from sgp4.api import Satrec\n",
    "from jax_sgp4 import jaxsgp4, tle2sat\n",
    "import jax.numpy as jnp\n",
    "\n",
    "# for a single time \n",
    "\n",
    "# TLE for the International Space Station (ZARYA)\n",
    "tle1 = '1 25544U 98067A   25316.22557474  .00019835  00000-0  36009-3 0  9990'\n",
    "tle2 = '2 25544  51.6334 293.5281 0004132  61.4658 298.6746 15.49560899538121'\n",
    "\n",
    "tsince = 500.0\n",
    "\n",
    "# Propagate using standard SGP4 implementation\n",
    "sat = Satrec.twoline2rv(tle1, tle2)\n",
    "e, r, v = sat.sgp4_tsince(tsince)\n",
    "\n",
    "# Propagate using JAX SGP4 implementation\n",
    "satjax = tle2sat(tle1, tle2)\n",
    "result = jaxsgp4(satjax, tsince)\n",
    "rjax = result[:3]\n",
    "vjax = result[3:]\n",
    "\n",
    "print(r)\n",
    "print(v)\n",
    "print(rjax)\n",
    "print(vjax)\n",
    "print(rjax - jnp.array(r))\n",
    "print(vjax - jnp.array(v))"
   ]
  },
  {
   "cell_type": "code",
   "execution_count": 16,
   "id": "1263b487",
   "metadata": {},
   "outputs": [
    {
     "name": "stdout",
     "output_type": "stream",
     "text": [
      "tsince jax: -0.01611471176147461\n",
      "jax position: [ 2.7085593e+03 -6.2324282e+03 -5.8128071e+00]\n",
      "true position: (2712.7702621758103, -6230.589937971307, -0.0018002799168894542)\n",
      "true velocity: (4.355110687256687, 1.906431399251357, 6.009654326336986)\n",
      "difference in position: [-4.2109375 -1.8383789 -5.811007 ]\n",
      "difference in position (tsince): [ 0.00073242  0.00048828 -0.00158112] \n",
      "float32\n",
      "0.8640000000000001\n"
     ]
    }
   ],
   "source": [
    "# test spg4_jdfr function \n",
    "\n",
    "from jax_sgp4 import sgp4_jdfr, tle2sat, sgp4\n",
    "from sgp4.api import jday, Satrec\n",
    "import jax.numpy as jnp\n",
    "\n",
    "# TLE for the International Space Station (ZARYA)\n",
    "tle1 = '1 25544U 98067A   25316.22557474  .00019835  00000-0  36009-3 0  9990'\n",
    "tle2 = '2 25544  51.6334 293.5281 0004132  61.4658 298.6746 15.49560899538121' \n",
    "\n",
    "# Create Satrec object\n",
    "sat = Satrec.twoline2rv(tle1, tle2)\n",
    "satjax = tle2sat(tle1, tle2)\n",
    "\n",
    "# # Choose a Julian date to propagate to\n",
    "# print(jday(2026, 1, 14, 12, 0, 0))  # Example Julian date 14th jan 2026 at 12:00:00 UTC\n",
    "# jd, fr = jday(2026, 1, 14, 12, 0, 0)\n",
    "\n",
    "# # the above date gives larger error compared to original sgp4 package since the date is \n",
    "# # quite far away and floating point error propagates\n",
    "# # The below date (one day from epoch) gives similar order of magnitude errors to sgp4 example\n",
    "# jd, fr = 2460992.5, 0.22557474\n",
    "\n",
    "# propagate to epoch\n",
    "jd, fr = sat.jdsatepoch, sat.jdsatepochF \n",
    "\n",
    "# jax sgp4_jdfr internal calculations:\n",
    "year = satjax.epochyr\n",
    "days, fraction = jnp.divmod(satjax.epochdays, 1.0)\n",
    "jd_epoch = year * 365 + (year - 1) // 4 + days + 1721044.5\n",
    "fr_epoch = jnp.round(fraction, 8)\n",
    "tsince = (jd - jd_epoch) * 1440.0 + (fr - fr_epoch) * 1440.0\n",
    "\n",
    "# # compare against original sgp4 package jd, fr at epoch\n",
    "# jd_epoch_ref, fr_epoch_ref = sat.jdsatepoch, sat.jdsatepochF\n",
    "# print(f'epoch jd jax: {jd_epoch}, epoch fr jax: {fr_epoch}')\n",
    "# print(f'epoch jd ref: {jd_epoch_ref}, epoch fr ref: {fr_epoch_ref}')\n",
    "\n",
    "print(f'tsince jax: {tsince}')\n",
    "\n",
    "jd_jax = jnp.float32(jd)\n",
    "fr_jax = jnp.float32(fr)\n",
    "\n",
    "result = sgp4_jdfr(satjax, jd_jax, fr_jax)\n",
    "r_jax = result[:3]\n",
    "v_jax = result[3:]\n",
    "\n",
    "print(f'jax position: {r_jax}')  # position (km)\n",
    "#print(f'jax velocity: {v_jax}')  # velocity (km/s)\n",
    "\n",
    "# compare against sgp4 package\n",
    "e, r_ref, v_ref = sat.sgp4(jd, fr)\n",
    "print(f'true position: {r_ref}')\n",
    "print(f'true velocity: {v_ref}')\n",
    "print(f'difference in position: {r_jax - jnp.array(r_ref)}')\n",
    "#print(f'difference in velocity: {v_jax - jnp.array(v_ref)}')\n",
    "\n",
    "# compare against jax with tsince \n",
    "result_tsince = sgp4(satjax, 0.0)\n",
    "r_jax_tsince = result_tsince[:3]\n",
    "v_jax_tsince = result_tsince[3:]\n",
    "print(f'difference in position (tsince): {r_jax_tsince - jnp.array(r_ref)} ')\n",
    "#print(f'difference in velocity (tsince): {v_jax_tsince - jnp.array(v_ref)} ')\n",
    "\n",
    "print(r_jax.dtype)\n",
    "\n",
    "# have compared this against the original sgp4 package and the jd, fr converion is works \n",
    "# the same, if you have issues then it is probably the sgp4 code itself\n",
    "\n",
    "print(0.00001 * 60*60*24)"
   ]
  },
  {
   "cell_type": "code",
   "execution_count": 9,
   "id": "81c7362c",
   "metadata": {},
   "outputs": [
    {
     "name": "stdout",
     "output_type": "stream",
     "text": [
      "1.46 ms ± 5.2 μs per loop (mean ± std. dev. of 7 runs, 1,000 loops each)\n"
     ]
    },
    {
     "ename": "NameError",
     "evalue": "name 'np' is not defined",
     "output_type": "error",
     "traceback": [
      "\u001b[31m---------------------------------------------------------------------------\u001b[39m",
      "\u001b[31mNameError\u001b[39m                                 Traceback (most recent call last)",
      "\u001b[36mCell\u001b[39m\u001b[36m \u001b[39m\u001b[32mIn[9]\u001b[39m\u001b[32m, line 12\u001b[39m\n\u001b[32m     10\u001b[39m \u001b[38;5;66;03m# convert array of times to jd, fr for sgp4 package\u001b[39;00m\n\u001b[32m     11\u001b[39m jd, fr = sat.jdsatepoch, sat.jdsatepochF\n\u001b[32m---> \u001b[39m\u001b[32m12\u001b[39m jd_array = jd + \u001b[43mnp\u001b[49m.array(tsince_array) / \u001b[32m1440.0\u001b[39m\n\u001b[32m     13\u001b[39m fr_array = fr * np.ones_like(tsince_array)\n\u001b[32m     15\u001b[39m \u001b[38;5;66;03m# check results against sgp4 package\u001b[39;00m\n",
      "\u001b[31mNameError\u001b[39m: name 'np' is not defined"
     ]
    }
   ],
   "source": [
    "# test sgp4_many_times function\n",
    "\n",
    "from jax_sgp4 import sgp4_many_times\n",
    "\n",
    "tsince_array = jnp.linspace(0, 1440, num=10000)  # 10 time points over one day\n",
    "results_many_times = sgp4_many_times(satjax, tsince_array)\n",
    "\n",
    "%timeit sgp4_many_times(satjax, tsince_array).block_until_ready()\n",
    "\n",
    "# convert array of times to jd, fr for sgp4 package\n",
    "jd, fr = sat.jdsatepoch, sat.jdsatepochF\n",
    "jd_array = jd + np.array(tsince_array) / 1440.0\n",
    "fr_array = fr * np.ones_like(tsince_array)\n",
    "\n",
    "# check results against sgp4 package\n",
    "_, true_r_many_times, true_v_many_times = sat.sgp4_array(jd_array, fr_array)\n",
    "print(true_r_many_times - results_many_times[:, :3])  # compare positions\n",
    "print(true_v_many_times - results_many_times[:, 3:6])  # compare velocities\n",
    "\n",
    "# %timeit sat.sgp4_array(jd_array, fr_array)  # SGP4 C++ implementation for multiple times\n",
    "\n",
    "# # test over array for plot\n",
    "# jaxtimes = []\n",
    "# oldsgp4times = []\n",
    "# nums = []\n",
    "\n",
    "# for i in range(5):\n",
    "#   num = 10**i\n",
    "#   nums.append(num)\n",
    "#   tsince_array = jnp.linspace(0, 1440, num=num) \n",
    "#   jaxtime = %timeit -o sgp4_many_times(n0_test, e0_test, i0_test, w0_test, Omega0_test, M0_test, t0_test, Bstar_test, tsince_array).block_until_ready()\n",
    "#   jaxtimes.append(jaxtime.average)\n",
    "#   jd_array = jd + np.array(tsince_array) / 1440.0\n",
    "#   fr_array = fr * np.ones_like(tsince_array)\n",
    "#   oldsgp4time = %timeit -o sat.sgp4_array(jd_array, fr_array)\n",
    "#   oldsgp4times.append(oldsgp4time.average)\n",
    "\n",
    "# # Plot results\n",
    "\n",
    "# import matplotlib.pyplot as plt\n",
    "# plt.loglog(nums, jaxtimes, label='JAX SGP4')\n",
    "# plt.loglog(nums, oldsgp4times, label='SGP4 C++')\n",
    "# plt.xlabel('Number of Time Points')\n",
    "# plt.ylabel('Time (s)')\n",
    "# plt.legend()"
   ]
  },
  {
   "cell_type": "code",
   "execution_count": 4,
   "id": "8eef85a0",
   "metadata": {},
   "outputs": [
    {
     "name": "stdout",
     "output_type": "stream",
     "text": [
      "Number of TLEs: 9341\n",
      "(9341, 6)\n",
      "[[-1.36424205e-12 -3.63797881e-12  0.00000000e+00]\n",
      " [-3.86535248e-12  0.00000000e+00  5.00222086e-12]\n",
      " [ 3.02406988e-10  8.50377546e-10  7.91260391e-11]\n",
      " ...\n",
      " [ 1.63709046e-11  2.72848411e-11  2.22826202e-11]\n",
      " [ 6.36646291e-12  1.68256520e-11  1.00044417e-11]\n",
      " [-5.45696821e-12  9.54969437e-12 -3.18323146e-12]]\n",
      "[[ 8.88178420e-16 -2.66453526e-15 -3.99680289e-15]\n",
      " [-8.88178420e-16 -6.88338275e-15 -8.88178420e-16]\n",
      " [-5.91526828e-13  1.40332190e-13  7.96585020e-13]\n",
      " ...\n",
      " [-2.84217094e-14  2.93098879e-14 -1.77635684e-14]\n",
      " [-1.77635684e-14  1.15463195e-14 -1.19904087e-14]\n",
      " [-6.21724894e-15 -7.99360578e-15 -7.99360578e-15]]\n"
     ]
    }
   ],
   "source": [
    "# test tle2sat_array and sgp4_many_sats functions \n",
    "\n",
    "from jax_sgp4 import tle2sat_array, sgp4_many_sats\n",
    "from sgp4.api import Satrec\n",
    "from importlib.resources import files\n",
    "import numpy as np\n",
    "\n",
    "# test propagation over multiple satellites\n",
    "\n",
    "# took raw gnss TLE data from https://celestrak.org/NORAD/elements/ which is in file gnss.txt \n",
    "# gnss actually doesn't work because these are deep space \n",
    "# use space stations instead gives 32 satellites to test with\n",
    "# or use starlink gives 9341 LEO sats to test with\n",
    "\n",
    "data = files('jax_sgp4').joinpath('data/starlink.txt').read_text()\n",
    "lines = iter(data.splitlines())\n",
    "\n",
    "tle1_list = []\n",
    "tle2_list = []\n",
    "\n",
    "for line1 in lines:\n",
    "    \n",
    "    if not line1.startswith('1 '):\n",
    "        continue \n",
    "        # note: Will get an error here if the satellite name starts with a '1 '\n",
    "\n",
    "    line2 = next(lines)\n",
    "\n",
    "    line1 = line1[:69]\n",
    "    line2 = line2[:69]\n",
    "\n",
    "    tle1_list.append(line1)\n",
    "    tle2_list.append(line2)\n",
    "\n",
    "print(f\"Number of TLEs: {len(tle1_list)}\")\n",
    "\n",
    "# test for jax sgp4\n",
    "sat_array_jax = tle2sat_array(tle1_list, tle2_list)\n",
    "\n",
    "# Choose a time since epoch to propagate to (minutes)\n",
    "tsince = 120.0\n",
    "results_many_sats = sgp4_many_sats(sat_array_jax, tsince)\n",
    "\n",
    "print(results_many_sats.shape)  # (num_sats, 6)\n",
    "#%timeit sgp4_many_sats(sat_array_jax, tsince).block_until_ready()\n",
    "\n",
    "# compare against python sgp4 package for multiple satellites SatrecArray\n",
    "# (don't use this for timing as it's not the fast C++ implementation)\n",
    "# just here to check against for correctness\n",
    "\n",
    "true_results = []\n",
    "for tle1, tle2 in zip(tle1_list, tle2_list):\n",
    "    sat = Satrec.twoline2rv(tle1, tle2)\n",
    "    e, r, v = sat.sgp4_tsince(tsince)\n",
    "    true_results.append((*r, *v))\n",
    "\n",
    "true_results = np.array(true_results)\n",
    "\n",
    "# Compare\n",
    "print(true_results[:, :3] - results_many_sats[:, :3])  # positions\n",
    "print(true_results[:, 3:] - results_many_sats[:, 3:])  # velocities\n",
    "\n",
    "\n",
    "# # see how time scales with number of satellites  ######### the below needs fixing\n",
    "# # test over array \n",
    "# manysatjaxtimes = []\n",
    "# satnums = []\n",
    "\n",
    "# for i in range(4): # change this for starlink data\n",
    "#   num = 10**i\n",
    "#   satnums.append(num)\n",
    "#   tsince = 120.0 # choose arbitrary time\n",
    "#   jaxtime = %timeit -o sgp4_many_sats(sat_array_jax[:num], tsince).block_until_ready() # need to fix sat_array_jax slicing\n",
    "#   manysatjaxtimes.append(jaxtime.average)\n",
    "\n",
    "# # Plot results\n",
    "# import matplotlib.pyplot as plt\n",
    "# plt.plot(satnums, manysatjaxtimes, label='JAX SGP4 Many Sats')\n",
    "# plt.xlabel('Number of Satellites')\n",
    "# plt.ylabel('Time (s)')\n",
    "# plt.legend()"
   ]
  },
  {
   "cell_type": "code",
   "execution_count": 10,
   "id": "59a70e7b",
   "metadata": {},
   "outputs": [
    {
     "name": "stdout",
     "output_type": "stream",
     "text": [
      "0.8.2\n",
      "Number of TLEs: 9341\n",
      "(2461054.5, 0.5)\n",
      "Number of TLEs: 9341\n",
      "sat_array_jax.n0 shape: (9341,)\n",
      "sat_array_jax.e0 shape: (9341,)\n",
      "jd type: <class 'float'>, shape: ()\n",
      "fr type: <class 'float'>, shape: ()\n",
      "(9341, 6)\n",
      "jax:\n",
      "2.52 ms ± 73.8 μs per loop (mean ± std. dev. of 7 runs, 100 loops each)\n"
     ]
    },
    {
     "ename": "AttributeError",
     "evalue": "'float' object has no attribute 'astype'",
     "output_type": "error",
     "traceback": [
      "\u001b[31m---------------------------------------------------------------------------\u001b[39m",
      "\u001b[31mAttributeError\u001b[39m                            Traceback (most recent call last)",
      "\u001b[36mCell\u001b[39m\u001b[36m \u001b[39m\u001b[32mIn[10]\u001b[39m\u001b[32m, line 61\u001b[39m\n\u001b[32m     58\u001b[39m     sats.append(sat)\n\u001b[32m     59\u001b[39m sat_array = SatrecArray(sats)\n\u001b[32m---> \u001b[39m\u001b[32m61\u001b[39m _, true_r_many_sats, true_v_many_sats = \u001b[43msat_array\u001b[49m\u001b[43m.\u001b[49m\u001b[43msgp4\u001b[49m\u001b[43m(\u001b[49m\u001b[43mjd\u001b[49m\u001b[43m,\u001b[49m\u001b[43m \u001b[49m\u001b[43mfr\u001b[49m\u001b[43m)\u001b[49m\n\u001b[32m     62\u001b[39m \u001b[38;5;28mprint\u001b[39m(\u001b[33m\"\u001b[39m\u001b[33mC++\u001b[39m\u001b[33m\"\u001b[39m)\n\u001b[32m     63\u001b[39m get_ipython().run_line_magic(\u001b[33m'\u001b[39m\u001b[33mtimeit\u001b[39m\u001b[33m'\u001b[39m, \u001b[33m'\u001b[39m\u001b[33msat_array.sgp4(jd, fr)\u001b[39m\u001b[33m'\u001b[39m)\n",
      "\u001b[36mFile \u001b[39m\u001b[32m~/Documents/PhD/Repositories/jax_sgp4/.venv/lib/python3.12/site-packages/sgp4/wrapper.py:54\u001b[39m, in \u001b[36mSatrecArray.sgp4\u001b[39m\u001b[34m(self, jd, fr)\u001b[39m\n\u001b[32m     38\u001b[39m \u001b[38;5;28;01mdef\u001b[39;00m\u001b[38;5;250m \u001b[39m\u001b[34msgp4\u001b[39m(\u001b[38;5;28mself\u001b[39m, jd, fr):\n\u001b[32m     39\u001b[39m \u001b[38;5;250m    \u001b[39m\u001b[33;03m\"\"\"Compute positions and velocities for the satellites in this array.\u001b[39;00m\n\u001b[32m     40\u001b[39m \n\u001b[32m     41\u001b[39m \u001b[33;03m    Given NumPy scalars or arrays ``jd`` and ``fr`` supplying the\u001b[39;00m\n\u001b[32m   (...)\u001b[39m\u001b[32m     52\u001b[39m \n\u001b[32m     53\u001b[39m \u001b[33;03m    \"\"\"\u001b[39;00m\n\u001b[32m---> \u001b[39m\u001b[32m54\u001b[39m     jd = \u001b[43mjd\u001b[49m\u001b[43m.\u001b[49m\u001b[43mastype\u001b[49m(\u001b[33m'\u001b[39m\u001b[33mfloat64\u001b[39m\u001b[33m'\u001b[39m, copy=\u001b[38;5;28;01mFalse\u001b[39;00m)\n\u001b[32m     55\u001b[39m     fr = fr.astype(\u001b[33m'\u001b[39m\u001b[33mfloat64\u001b[39m\u001b[33m'\u001b[39m, copy=\u001b[38;5;28;01mFalse\u001b[39;00m)\n\u001b[32m     57\u001b[39m     ilength = \u001b[38;5;28mlen\u001b[39m(\u001b[38;5;28mself\u001b[39m)\n",
      "\u001b[31mAttributeError\u001b[39m: 'float' object has no attribute 'astype'"
     ]
    }
   ],
   "source": [
    "# test propagation over multiple satellites and times using jaxsgp4_jdfr\n",
    "from jax_sgp4 import tle2sat_array\n",
    "from jax_sgp4.functions import jaxsgp4_jdfr\n",
    "from sgp4.api import jday, SatrecArray, Satrec\n",
    "from importlib.resources import files\n",
    "import jax.numpy as jnp\n",
    "\n",
    "print(jax.__version__)\n",
    "\n",
    "# took raw starlink TLE data from https://celestrak.org/NORAD/elements/ which is in file starlink.txt\n",
    "\n",
    "#data = get_data(__name__, 'starlink.txt')\n",
    "\n",
    "data = files('jax_sgp4').joinpath('data/starlink.txt').read_text()\n",
    "lines = iter(data.splitlines())\n",
    "\n",
    "tle1_list = []\n",
    "tle2_list = []\n",
    "\n",
    "for line1 in lines:\n",
    "    \n",
    "    if not line1.startswith('1 '):\n",
    "        continue \n",
    "\n",
    "    line2 = next(lines)\n",
    "\n",
    "    line1 = line1[:69]\n",
    "    line2 = line2[:69]\n",
    "\n",
    "    tle1_list.append(line1)\n",
    "    tle2_list.append(line2)\n",
    "\n",
    "print(f\"Number of TLEs: {len(tle1_list)}\")\n",
    "\n",
    "# Choose a Julian date to propagate to\n",
    "print(jday(2026, 1, 14, 12, 0, 0))  # Example Julian date 14th jan 2026 at 12:00:00 UTC\n",
    "jd, fr = jday(2026, 1, 14, 12, 0, 0)\n",
    "\n",
    "# test for jax sgp4\n",
    "sat_array_jax = tle2sat_array(tle1_list, tle2_list)\n",
    "\n",
    "print(f\"Number of TLEs: {len(tle1_list)}\")\n",
    "print(f\"sat_array_jax.n0 shape: {jnp.array(sat_array_jax.n0).shape}\")\n",
    "print(f\"sat_array_jax.e0 shape: {jnp.array(sat_array_jax.e0).shape}\")\n",
    "print(f\"jd type: {type(jd)}, shape: {jnp.array(jd).shape}\")\n",
    "print(f\"fr type: {type(fr)}, shape: {jnp.array(fr).shape}\")\n",
    "\n",
    "results_many_sats = jaxsgp4_jdfr(sat_array_jax, jd, fr)\n",
    "\n",
    "print(results_many_sats.shape)  # (num_sats, 6)\n",
    "print(\"jax:\")\n",
    "%timeit jaxsgp4_jdfr(sat_array_jax, jd, fr).block_until_ready()\n",
    "\n",
    "# compare against python sgp4 package for multiple satellites SatrecArray\n",
    "sats = []\n",
    "for tle1, tle2 in zip(tle1_list, tle2_list):\n",
    "    sat = Satrec.twoline2rv(tle1, tle2)\n",
    "    sats.append(sat)\n",
    "sat_array = SatrecArray(sats)\n",
    "\n",
    "_, true_r_many_sats, true_v_many_sats = sat_array.sgp4(jd, fr)\n",
    "print(\"C++\")\n",
    "%timeit sat_array.sgp4(jd, fr)\n",
    "\n",
    "# Compare\n",
    "print(np.array(true_r_many_sats) - results_many_sats[:, :3])  # positions\n",
    "print(np.array(true_v_many_times) - results_many_sats[:, 3:])  # velocities"
   ]
  },
  {
   "cell_type": "code",
   "execution_count": 5,
   "id": "e54ef72d",
   "metadata": {},
   "outputs": [
    {
     "name": "stdout",
     "output_type": "stream",
     "text": [
      "PyTreeDef(CustomNode(namedtuple[Satellite], [*, *, *, *, *, *, *, *, *]))\n"
     ]
    },
    {
     "data": {
      "text/plain": [
       "Satellite(n0=(9341,), e0=(9341,), i0=(9341,), w0=(9341,), Omega0=(9341,), M0=(9341,), Bstar=(9341,), epochdays=(9341,), epochyr=(9341,))"
      ]
     },
     "execution_count": 5,
     "metadata": {},
     "output_type": "execute_result"
    }
   ],
   "source": [
    "import jax\n",
    "from jax.tree_util import tree_structure\n",
    "\n",
    "print(tree_structure(sat_array_jax))\n",
    "\n",
    "jax.tree_util.tree_map(\n",
    "    lambda x: getattr(x, \"shape\", None),\n",
    "    sat_array_jax\n",
    ")"
   ]
  }
 ],
 "metadata": {
  "kernelspec": {
   "display_name": ".venv (3.12.8)",
   "language": "python",
   "name": "python3"
  },
  "language_info": {
   "codemirror_mode": {
    "name": "ipython",
    "version": 3
   },
   "file_extension": ".py",
   "mimetype": "text/x-python",
   "name": "python",
   "nbconvert_exporter": "python",
   "pygments_lexer": "ipython3",
   "version": "3.12.8"
  }
 },
 "nbformat": 4,
 "nbformat_minor": 5
}
